{"type": "FeatureCollection", "features": [ {"type": "Feature", "properties": {"norad_id": 43437, "name": "SENTINEL-3B", "group": "resource", "lat": 41.51409426963182, "lon": -112.88665184307146, "alt_km": 798.4525742956102, "timestamp": "2025-12-20T07:33:50.461288+00:00", "meta": {"OBJECT_NAME": "SENTINEL-3B", "OBJECT_ID": "2018-039A", "EPOCH": "2025-12-19T15:46:20.299296", "MEAN_MOTION": 14.26736516, "ECCENTRICITY": 0.00016299, "INCLINATION": 98.6259, "RA_OF_ASC_NODE": 58.7431, "ARG_OF_PERICENTER": 94.9149, "MEAN_ANOMALY": 265.2217, "EPHEMERIS_TYPE": 0, "CLASSIFICATION_TYPE": "U", "NORAD_CAT_ID": 43437, "ELEMENT_SET_NO": 999, "REV_AT_EPOCH": 39852, "BSTAR": 6.0426874e-05, "MEAN_MOTION_DOT": 1.03e-06, "MEAN_MOTION_DDOT": 0}, "tle": {"line1": "1 43437U 18039A   25353.65717939  .00000103  00000+0  60427-4 0  9993", "line2": "2 43437  98.6259  58.7431 0001629  94.9149 265.2217 14.26736516398527"}}, "geometry": {"type": "Point", "coordinates": [-112.88665184307146, 41.51409426963182]}}, {"type": "Feature", "properties": {"norad_id": 43461, "name": "GAOFEN-5 01", "group": "resource", "lat": -35.641682479699384, "lon": -36.478391799083305, "alt_km": 697.7663842639804, "timestamp": "2025-12-20T07:33:50.461299+00:00", "meta": {"OBJECT_NAME": "GAOFEN-5 01", "OBJECT_ID": "2018-043A", "EPOCH": "2025-12-19T20:13:06.924000", "MEAN_MOTION": 14.60416951, "ECCENTRICITY": 5.516e-05, "INCLINATION": 98.4335, "RA_OF_ASC_NODE": 316.9339, "ARG_OF_PERICENTER": 297.4065, "MEAN_ANOMALY": 62.7078, "EPHEMERIS_TYPE": 0, "CLASSIFICATION_TYPE": "U", "NORAD_CAT_ID": 43461, "ELEMENT_SET_NO": 999, "REV_AT_EPOCH": 40551, "BSTAR": 7.5009583e-05, "MEAN_MOTION_DOT": 3.14e-06, "MEAN_MOTION_DDOT": 0}, "tle": {"line1": "1 43461U 18043A   25353.84244125  .00000314  00000+0  75010-4 0  9996", "line2": "2 43461  98.4335 316.9339 0000551 297.4065  62.7078 14.60416951405512"}}, "geometry": {"type": "Point", "coordinates": [-36.478391799083305, -35.641682479699384]}}, {"type": "Feature", "properties": {"norad_id": 43484, "name": "GAOFEN-6", "group": "resource", "lat": 38.61764938040343, "lon": 52.03937579041458, "alt_km": 628.2374072342554, "timestamp": "2025-12-20T07:33:50.461309+00:00", "meta": {"OBJECT_NAME": "GAOFEN-6", "OBJECT_ID": "2018-048A", "EPOCH": "2025-12-19T23:15:22.839840", "MEAN_MOTION": 14.76578722, "ECCENTRICITY": 0.00128819, "INCLINATION": 97.803, "RA_OF_ASC_NODE": 57.9935, "ARG_OF_PERICENTER": 42.3812, "MEAN_ANOMALY": 317.8391, "EPHEMERIS_TYPE": 0, "CLASSIFICATION_TYPE": "U", "NORAD_CAT_ID": 43484, "ELEMENT_SET_NO": 999, "REV_AT_EPOCH": 40694, "BSTAR": 9.3761531e-05, "MEAN_MOTION_DOT": 6.06e-06, "MEAN_MOTION_DDOT": 0}, "tle": {"line1": "1 43484U 18048A   25353.96901435  .00000606  00000+0  93762-4 0  9991", "line2": "2 43484  97.8030  57.9935 0012881  42.3812 317.8391 14.76578722406944"}}, "geometry": {"type": "Point", "coordinates": [52.03937579041458, 38.61764938040343]}}, {"type": "Feature", "properties": {"norad_id": 43585, "name": "GAOFEN-11 01", "group": "resource", "lat": 26.19006605986235, "lon": 53.644338598934624, "alt_km": 418.6289803669397, "timestamp": "2025-12-20T07:33:50.461319+00:00", "meta": {"OBJECT_NAME": "GAOFEN-11 01", "OBJECT_ID": "2018-063A", "EPOCH": "2025-12-19T22:09:01.342944", "MEAN_MOTION": 15.49406931, "ECCENTRICITY": 0.00039026, "INCLINATION": 97.156, "RA_OF_ASC_NODE": 56.7981, "ARG_OF_PERICENTER": 276.2621, "MEAN_ANOMALY": 83.8186, "EPHEMERIS_TYPE": 0, "CLASSIFICATION_TYPE": "U", "NORAD_CAT_ID": 43585, "ELEMENT_SET_NO": 999, "REV_AT_EPOCH": 41253, "BSTAR": 0.00013195695, "MEAN_MOTION_DOT": 7.151e-05, "MEAN_MOTION_DDOT": 0}, "tle": {"line1": "1 43585U 18063A   25353.92293221  .00007151  00000+0  13196-3 0  9997", "line2": "2 43585  97.1560  56.7981 0003902 276.2621  83.8186 15.49406931412532"}}, "geometry": {"type": "Point", "coordinates": [53.644338598934624, 26.19006605986235]}}, {"type": "Feature", "properties": {"norad_id": 43613, "name": "ICESAT-2", "group": "resource", "lat": -86.82137477047132, "lon": 23.67256495910515, "alt_km": 490.22508224511057, "timestamp": "2025-12-20T07:33:50.461330+00:00", "meta": {"OBJECT_NAME": "ICESAT-2", "OBJECT_ID": "2018-070A", "EPOCH": "2025-12-19T22:32:20.891616", "MEAN_MOTION": 15.28217851, "ECCENTRICITY": 0.00027834, "INCLINATION": 92.0049, "RA_OF_ASC_NODE": 242.6801, "ARG_OF_PERICENTER": 120.6722, "MEAN_ANOMALY": 239.4802, "EPHEMERIS_TYPE": 0, "CLASSIFICATION_TYPE": "U", "NORAD_CAT_ID": 43613, "ELEMENT_SET_NO": 999, "REV_AT_EPOCH": 40508, "BSTAR": 0.00029106468, "MEAN_MOTION_DOT": 8.001e-05, "MEAN_MOTION_DDOT": 0}, "tle": {"line1": "1 43613U 18070A   25353.93913069  .00008001  00000+0  29106-3 0  9990", "line2": "2 43613  92.0049 242.6801 0002783 120.6722 239.4802 15.28217851405081"}}, "geometry": {"type": "Point", "coordinates": [23.67256495910515, -86.82137477047132]}}, {"type": "Feature", "properties": {"norad_id": 43719, "name": "HYSIS", "group": "resource", "lat": 47.97279264734734, "lon": -113.75539221997775, "alt_km": 629.1449756541815, "timestamp": "2025-12-20T07:33:50.461351+00:00", "meta": {"OBJECT_NAME": "HYSIS", "OBJECT_ID": "2018-096A", "EPOCH": "2025-12-19T21:13:40.101888", "MEAN_MOTION": 14.78664694, "ECCENTRICITY": 0.00010988, "INCLINATION": 98.0096, "RA_OF_ASC_NODE": 56.8278, "ARG_OF_PERICENTER": 51.8808, "MEAN_ANOMALY": 308.2502, "EPHEMERIS_TYPE": 0, "CLASSIFICATION_TYPE": "U", "NORAD_CAT_ID": 43719, "ELEMENT_SET_NO": 999, "REV_AT_EPOCH": 38092, "BSTAR": 0.00018028991, "MEAN_MOTION_DOT": 1.269e-05, "MEAN_MOTION_DDOT": 0}, "tle": {"line1": "1 43719U 18096A   25353.88449192  .00001269  00000+0  18029-3 0  9991", "line2": "2 43719  98.0096  56.8278 0001098  51.8808 308.2502 14.78664694380929"}}, "geometry": {"type": "Point", "coordinates": [-113.75539221997775, 47.97279264734734]}}, {"type": "Feature", "properties": {"norad_id": 43783, "name": "KAZSTSAT", "group": "resource", "lat": -30.723271281929996, "lon": -155.2880897259573, "alt_km": 574.6829846548644, "timestamp": "2025-12-20T07:33:50.461363+00:00", "meta": {"OBJECT_NAME": "KAZSTSAT", "OBJECT_ID": "2018-099AB", "EPOCH": "2025-12-19T01:47:43.400832", "MEAN_MOTION": 14.99363796, "ECCENTRICITY": 0.00059468, "INCLINATION": 97.4535, "RA_OF_ASC_NODE": 27.9874, "ARG_OF_PERICENTER": 301.8992, "MEAN_ANOMALY": 58.1653, "EPHEMERIS_TYPE": 0, "CLASSIFICATION_TYPE": "U", "NORAD_CAT_ID": 43783, "ELEMENT_SET_NO": 999, "REV_AT_EPOCH": 38431, "BSTAR": 3.2653117e-05, "MEAN_MOTION_DOT": 3.44e-06, "MEAN_MOTION_DDOT": 0}, "tle": {"line1": "1 43783U 18099AB  25353.07480788  .00000344  00000+0  32653-4 0  9995", "line2": "2 43783  97.4535  27.9874 0005946 301.8992  58.1653 14.99363796384317"}}, "geometry": {"type": "Point", "coordinates": [-155.2880897259573, -30.723271281929996]}}, {"type": "Feature", "properties": {"norad_id": 43831, "name": "SAUDISAT 5A", "group": "resource", "lat": -78.36000499870184, "lon": -164.34316281840137, "alt_km": 502.8400693745698, "timestamp": "2025-12-20T07:33:50.461374+00:00", "meta": {"OBJECT_NAME": "SAUDISAT 5A", "OBJECT_ID": "2018-102A", "EPOCH": "2025-12-19T22:33:13.855680", "MEAN_MOTION": 15.25739633, "ECCENTRICITY": 0.00114448, "INCLINATION": 97.3347, "RA_OF_ASC_NODE": 53.9922, "ARG_OF_PERICENTER": 54.0452, "MEAN_ANOMALY": 306.1847, "EPHEMERIS_TYPE": 0, "CLASSIFICATION_TYPE": "U", "NORAD_CAT_ID": 43831, "ELEMENT_SET_NO": 999, "REV_AT_EPOCH": 38832, "BSTAR": 0.00017363613, "MEAN_MOTION_DOT": 4.365e-05, "MEAN_MOTION_DDOT": 0}, "tle": {"line1": "1 43831U 18102A   25353.93974370  .00004365  00000+0  17364-3 0  9992", "line2": "2 43831  97.3347  53.9922 0011444  54.0452 306.1847 15.25739633388325"}}, "geometry": {"type": "Point", "coordinates": [-164.34316281840137, -78.36000499870184]}}, {"type": "Feature", "properties": {"norad_id": 43833, "name": "SAUDISAT 5B", "group": "resource", "lat": -37.11176659746984, "lon": 62.7127676976616, "alt_km": 494.2811090464693, "timestamp": "2025-12-20T07:33:50.461384+00:00", "meta": {"OBJECT_NAME": "SAUDISAT 5B", "OBJECT_ID": "2018-102C", "EPOCH": "2025-12-19T22:17:09.045888", "MEAN_MOTION": 15.26088551, "ECCENTRICITY": 0.0012175, "INCLINATION": 97.3442, "RA_OF_ASC_NODE": 56.7327, "ARG_OF_PERICENTER": 56.2785, "MEAN_ANOMALY": 303.9613, "EPHEMERIS_TYPE": 0, "CLASSIFICATION_TYPE": "U", "NORAD_CAT_ID": 43833, "ELEMENT_SET_NO": 999, "REV_AT_EPOCH": 38843, "BSTAR": 0.00016586775, "MEAN_MOTION_DOT": 4.212e-05, "MEAN_MOTION_DDOT": 0}, "tle": {"line1": "1 43833U 18102C   25353.92857692  .00004212  00000+0  16587-3 0  9997", "line2": "2 43833  97.3442  56.7327 0012175  56.2785 303.9613 15.26088551388433"}}, "geometry": {"type": "Point", "coordinates": [62.7127676976616, -37.11176659746984]}}, {"type": "Feature", "properties": {"norad_id": 44622, "name": "GAOFEN-10R", "group": "resource", "lat": 11.028618805907621, "lon": 123.42755253192642, "alt_km": 626.3544398487229, "timestamp": "2025-12-20T07:33:50.461395+00:00", "meta": {"OBJECT_NAME": "GAOFEN-10R", "OBJECT_ID": "2019-066A", "EPOCH": "2025-12-19T22:42:29.258208", "MEAN_MOTION": 14.82814626, "ECCENTRICITY": 0.00073951, "INCLINATION": 98.0288, "RA_OF_ASC_NODE": 301.4807, "ARG_OF_PERICENTER": 21.1181, "MEAN_ANOMALY": 339.0336, "EPHEMERIS_TYPE": 0, "CLASSIFICATION_TYPE": "U", "NORAD_CAT_ID": 44622, "ELEMENT_SET_NO": 999, "REV_AT_EPOCH": 33581, "BSTAR": 0.00014146323, "MEAN_MOTION_DOT": 1.09e-05, "MEAN_MOTION_DDOT": 0}, "tle": {"line1": "1 44622U 19066A   25353.94617197  .00001090  00000+0  14146-3 0  9990", "line2": "2 44622  98.0288 301.4807 0007395  21.1181 339.0336 14.82814626335815"}}, "geometry": {"type": "Point", "coordinates": [123.42755253192642, 11.028618805907621]}}]}